[
    {
        "Altitude(m)": 622200.0803205728,
        "Argument of Periapsis(deg)": 0.0,
        "Eccentricity": 0.0,
        "Inclination(deg)": 60.0,
        "Latitude(deg)": -52.16246403790659,
        "Longitude(deg)": 127.36068953942937,
        "Mean Anomaly(deg)": -65.45450000000002,
        "RAAN(deg)": 275.0,
        "Satellite Name": "Test1 1228",
        "Satellite Number": 1228,
        "Semi-Major Axis(m)": 6980739.136638005,
        "Time(s)": 0
    },
    {
        "Altitude(m)": 622058.2482277346,
        "Argument of Periapsis(deg)": 0.00010418945913296404,
        "Eccentricity": 0.0,
        "Inclination(deg)": 60.0,
        "Latitude(deg)": -51.799214351147455,
        "Longitude(deg)": 128.12874698848694,
        "Mean Anomaly(deg)": -64.83439385453818,
        "RAAN(deg)": 274.9995799508602,
        "Satellite Name": "Test1 1228",
        "Satellite Number": 1228,
        "Semi-Major Axis(m)": 6980739.136638005,
        "Time(s)": 10
    }
]